STARLINK-36965          
1 68961U 26099L   26132.83335648  .00007511  00000+0  41558-4 0  9990
2 68961  53.1594 331.6635 0000807  86.7162 282.7862 15.80872149  3037
