{
  "norad_id": 68961,
  "name": "STARLINK-36965",
  "history": [
    {
      "epoch": "2026-05-12T20:00:01.999008Z",
      "apogee_km": 328.51422780963185,
      "perigee_km": 327.43186164841245,
      "latitude_deg": 7.551381921509962,
      "longitude_deg": 166.72062918778064,
      "height_km": 328.1064470824986,
      "semi_major_axis_km": 6706.110044729022,
      "eccentricity": 8.07e-05,
      "inclination_deg": 53.1594,
      "raan_deg": 331.6635,
      "arg_perigee_deg": 86.7162,
      "mean_anomaly_deg": 282.7862,
      "mean_motion_rev_day": 15.80872149
    }
  ]
}